[{"CCSDS_OMM_VERS":"2.0","COMMENT":"GENERATED VIA SPACE-TRACK.ORG API","CREATION_DATE":"2020-12-26T20:10:57","ORIGINATOR":"18 SPCS","OBJECT_NAME":"ONEWEB-0135","OBJECT_ID":"2020-100Z","CENTER_NAME":"EARTH","REF_FRAME":"TEME","TIME_SYSTEM":"UTC","MEAN_ELEMENT_THEORY":"SGP4","EPOCH":"2020-12-26T14:00:01.000224","MEAN_MOTION":"15.42217370","ECCENTRICITY":"0.00093530","INCLINATION":"87.3975","RA_OF_ASC_NODE":"36.8091","ARG_OF_PERICENTER":"223.2527","MEAN_ANOMALY":"281.7272","EPHEMERIS_TYPE":"0","CLASSIFICATION_TYPE":"U","NORAD_CAT_ID":"47281","ELEMENT_SET_NO":"999","REV_AT_EPOCH":"181","BSTAR":"0.00061529000000","MEAN_MOTION_DOT":"0.00026520","MEAN_MOTION_DDOT":"0.0000000000000","SEMIMAJOR_AXIS":"6817.703","PERIOD":"93.372","APOAPSIS":"445.945","PERIAPSIS":"433.191","OBJECT_TYPE":"PAYLOAD","RCS_SIZE":null,"COUNTRY_CODE":"UK","LAUNCH_DATE":"2020-12-18","SITE":"VOSTO","DECAY_DATE":null,"FILE":"2910392","GP_ID":"168412409","TLE_LINE0":"0 ONEWEB-0135","TLE_LINE1":"1 47281U 20100Z   20361.58334491  .00026520  00000-0  61529-3 0  9995","TLE_LINE2":"2 47281  87.3975  36.8091 0009353 223.2527 281.7272 15.42217370  1814"},{"CCSDS_OMM_VERS":"2.0","COMMENT":"GENERATED VIA SPACE-TRACK.ORG API","CREATION_DATE":"2020-12-27T04:20:30","ORIGINATOR":"18 SPCS","OBJECT_NAME":"ONEWEB-0135","OBJECT_ID":"2020-100Z","CENTER_NAME":"EARTH","REF_FRAME":"TEME","TIME_SYSTEM":"UTC","MEAN_ELEMENT_THEORY":"SGP4","EPOCH":"2020-12-26T21:09:35.232192","MEAN_MOTION":"15.42227562","ECCENTRICITY":"0.00094500","INCLINATION":"87.3974","RA_OF_ASC_NODE":"36.7030","ARG_OF_PERICENTER":"221.8100","MEAN_ANOMALY":"138.2436","EPHEMERIS_TYPE":"0","CLASSIFICATION_TYPE":"U","NORAD_CAT_ID":"47281","ELEMENT_SET_NO":"999","REV_AT_EPOCH":"128","BSTAR":"0.00012079000000","MEAN_MOTION_DOT":"0.00005232","MEAN_MOTION_DDOT":"0.0000000000000","SEMIMAJOR_AXIS":"6817.673","PERIOD":"93.371","APOAPSIS":"445.981","PERIAPSIS":"433.095","OBJECT_TYPE":"PAYLOAD","RCS_SIZE":null,"COUNTRY_CODE":"UK","LAUNCH_DATE":"2020-12-18","SITE":"VOSTO","DECAY_DATE":null,"FILE":"2910583","GP_ID":"168438128","TLE_LINE0":"0 ONEWEB-0135","TLE_LINE1":"1 47281U 20100Z   20361.88165778  .00005232  00000-0  12079-3 0  9991","TLE_LINE2":"2 47281  87.3974  36.7030 0009450 221.8100 138.2436 15.42227562  1287"},{"CCSDS_OMM_VERS":"2.0","COMMENT":"GENERATED VIA SPACE-TRACK.ORG API","CREATION_DATE":"2020-12-27T14:36:10","ORIGINATOR":"18 SPCS","OBJECT_NAME":"ONEWEB-0135","OBJECT_ID":"2020-100Z","CENTER_NAME":"EARTH","REF_FRAME":"TEME","TIME_SYSTEM":"UTC","MEAN_ELEMENT_THEORY":"SGP4","EPOCH":"2020-12-27T12:00:02.000160","MEAN_MOTION":"15.42199220","ECCENTRICITY":"0.00095610","INCLINATION":"87.3971","RA_OF_ASC_NODE":"36.4811","ARG_OF_PERICENTER":"219.1410","MEAN_ANOMALY":"331.6923","EPHEMERIS_TYPE":"0","CLASSIFICATION_TYPE":"U","NORAD_CAT_ID":"47281","ELEMENT_SET_NO":"999","REV_AT_EPOCH":"137","BSTAR":"0.00165170000000","MEAN_MOTION_DOT":"0.00071482","MEAN_MOTION_DDOT":"0.0000000000000","SEMIMAJOR_AXIS":"6817.757","PERIOD":"93.373","APOAPSIS":"446.140","PERIAPSIS":"433.103","OBJECT_TYPE":"PAYLOAD","RCS_SIZE":null,"COUNTRY_CODE":"UK","LAUNCH_DATE":"2020-12-18","SITE":"VOSTO","DECAY_DATE":null,"FILE":"2910823","GP_ID":"168465217","TLE_LINE0":"0 ONEWEB-0135","TLE_LINE1":"1 47281U 20100Z   20362.50002315  .00071482  00000-0  16517-2 0  9998","TLE_LINE2":"2 47281  87.3971  36.4811 0009561 219.1410 331.6923 15.42199220  1374"},{"CCSDS_OMM_VERS":"2.0","COMMENT":"GENERATED VIA SPACE-TRACK.ORG API","CREATION_DATE":"2020-12-27T19:04:13","ORIGINATOR":"18 SPCS","OBJECT_NAME":"ONEWEB-0135","OBJECT_ID":"2020-100Z","CENTER_NAME":"EARTH","REF_FRAME":"TEME","TIME_SYSTEM":"UTC","MEAN_ELEMENT_THEORY":"SGP4","EPOCH":"2020-12-27T14:00:01.999872","MEAN_MOTION":"15.42228055","ECCENTRICITY":"0.00095870","INCLINATION":"87.3970","RA_OF_ASC_NODE":"36.4513","ARG_OF_PERICENTER":"218.7193","MEAN_ANOMALY":"74.4466","EPHEMERIS_TYPE":"0","CLASSIFICATION_TYPE":"U","NORAD_CAT_ID":"47281","ELEMENT_SET_NO":"999","REV_AT_EPOCH":"182","BSTAR":"0.00059279000000","MEAN_MOTION_DOT":"0.00025560","MEAN_MOTION_DDOT":"0.0000000000000","SEMIMAJOR_AXIS":"6817.672","PERIOD":"93.371","APOAPSIS":"446.073","PERIAPSIS":"433.000","OBJECT_TYPE":"PAYLOAD","RCS_SIZE":null,"COUNTRY_CODE":"UK","LAUNCH_DATE":"2020-12-18","SITE":"VOSTO","DECAY_DATE":null,"FILE":"2910969","GP_ID":"168490251","TLE_LINE0":"0 ONEWEB-0135","TLE_LINE1":"1 47281U 20100Z   20362.58335648  .00025560  00000-0  59279-3 0  9993","TLE_LINE2":"2 47281  87.3970  36.4513 0009587 218.7193  74.4466 15.42228055  1826"},{"CCSDS_OMM_VERS":"2.0","COMMENT":"GENERATED VIA SPACE-TRACK.ORG API","CREATION_DATE":"2020-12-27T22:26:09","ORIGINATOR":"18 SPCS","OBJECT_NAME":"ONEWEB-0135","OBJECT_ID":"2020-100Z","CENTER_NAME":"EARTH","REF_FRAME":"TEME","TIME_SYSTEM":"UTC","MEAN_ELEMENT_THEORY":"SGP4","EPOCH":"2020-12-27T20:00:01.000224","MEAN_MOTION":"15.42240764","ECCENTRICITY":"0.00095940","INCLINATION":"87.3970","RA_OF_ASC_NODE":"36.3632","ARG_OF_PERICENTER":"216.7897","MEAN_ANOMALY":"23.3518","EPHEMERIS_TYPE":"0","CLASSIFICATION_TYPE":"U","NORAD_CAT_ID":"47281","ELEMENT_SET_NO":"999","REV_AT_EPOCH":"142","BSTAR":"-0.00049000000000","MEAN_MOTION_DOT":"-0.00020926","MEAN_MOTION_DDOT":"0.0000000000000","SEMIMAJOR_AXIS":"6817.634","PERIOD":"93.370","APOAPSIS":"446.040","PERIAPSIS":"432.958","OBJECT_TYPE":"PAYLOAD","RCS_SIZE":null,"COUNTRY_CODE":"UK","LAUNCH_DATE":"2020-12-18","SITE":"VOSTO","DECAY_DATE":null,"FILE":"2911037","GP_ID":"168491864","TLE_LINE0":"0 ONEWEB-0135","TLE_LINE1":"1 47281U 20100Z   20362.83334491 -.00020926  00000-0 -49000-3 0  9990","TLE_LINE2":"2 47281  87.3970  36.3632 0009594 216.7897  23.3518 15.42240764  1422"},{"CCSDS_OMM_VERS":"2.0","COMMENT":"GENERATED VIA SPACE-TRACK.ORG API","CREATION_DATE":"2020-12-28T06:26:10","ORIGINATOR":"18 SPCS","OBJECT_NAME":"ONEWEB-0135","OBJECT_ID":"2020-100Z","CENTER_NAME":"EARTH","REF_FRAME":"TEME","TIME_SYSTEM":"UTC","MEAN_ELEMENT_THEORY":"SGP4","EPOCH":"2020-12-28T04:00:01.999584","MEAN_MOTION":"15.42269270","ECCENTRICITY":"0.00097850","INCLINATION":"87.3970","RA_OF_ASC_NODE":"36.2434","ARG_OF_PERICENTER":"215.6613","MEAN_ANOMALY":"73.9151","EPHEMERIS_TYPE":"0","CLASSIFICATION_TYPE":"U","NORAD_CAT_ID":"47281","ELEMENT_SET_NO":"999","REV_AT_EPOCH":"147","BSTAR":"-0.00089532000000","MEAN_MOTION_DOT":"-0.00038230","MEAN_MOTION_DDOT":"0.0000000000000","SEMIMAJOR_AXIS":"6817.550","PERIOD":"93.368","APOAPSIS":"446.086","PERIAPSIS":"432.744","OBJECT_TYPE":"PAYLOAD","RCS_SIZE":null,"COUNTRY_CODE":"UK","LAUNCH_DATE":"2020-12-18","SITE":"VOSTO","DECAY_DATE":null,"FILE":"2911241","GP_ID":"168496757","TLE_LINE0":"0 ONEWEB-0135","TLE_LINE1":"1 47281U 20100Z   20363.16668981 -.00038230  00000-0 -89532-3 0  9992","TLE_LINE2":"2 47281  87.3970  36.2434 0009785 215.6613  73.9151 15.42269270  1479"},{"CCSDS_OMM_VERS":"2.0","COMMENT":"GENERATED VIA SPACE-TRACK.ORG API","CREATION_DATE":"2020-12-28T17:37:40","ORIGINATOR":"18 SPCS","OBJECT_NAME":"ONEWEB-0135","OBJECT_ID":"2020-100Z","CENTER_NAME":"EARTH","REF_FRAME":"TEME","TIME_SYSTEM":"UTC","MEAN_ELEMENT_THEORY":"SGP4","EPOCH":"2020-12-28T05:51:45.598464","MEAN_MOTION":"15.42241169","ECCENTRICITY":"0.00096590","INCLINATION":"87.3969","RA_OF_ASC_NODE":"36.2154","ARG_OF_PERICENTER":"215.5392","MEAN_ANOMALY":"144.5222","EPHEMERIS_TYPE":"0","CLASSIFICATION_TYPE":"U","NORAD_CAT_ID":"47281","ELEMENT_SET_NO":"999","REV_AT_EPOCH":"149","BSTAR":"0.00011669000000","MEAN_MOTION_DOT":"0.00005059","MEAN_MOTION_DDOT":"0.0000000000000","SEMIMAJOR_AXIS":"6817.633","PERIOD":"93.370","APOAPSIS":"446.083","PERIAPSIS":"432.913","OBJECT_TYPE":"PAYLOAD","RCS_SIZE":null,"COUNTRY_CODE":"UK","LAUNCH_DATE":"2020-12-18","SITE":"VOSTO","DECAY_DATE":null,"FILE":"2911561","GP_ID":"168525609","TLE_LINE0":"0 ONEWEB-0135","TLE_LINE1":"1 47281U 20100Z   20363.24427776  .00005059  00000-0  11669-3 0  9993","TLE_LINE2":"2 47281  87.3969  36.2154 0009659 215.5392 144.5222 15.42241169  1492"},{"CCSDS_OMM_VERS":"2.0","COMMENT":"GENERATED VIA SPACE-TRACK.ORG API","CREATION_DATE":"2020-12-28T22:36:10","ORIGINATOR":"18 SPCS","OBJECT_NAME":"ONEWEB-0135","OBJECT_ID":"2020-100Z","CENTER_NAME":"EARTH","REF_FRAME":"TEME","TIME_SYSTEM":"UTC","MEAN_ELEMENT_THEORY":"SGP4","EPOCH":"2020-12-28T20:00:01.999872","MEAN_MOTION":"15.42250495","ECCENTRICITY":"0.00097910","INCLINATION":"87.3969","RA_OF_ASC_NODE":"36.0052","ARG_OF_PERICENTER":"212.3352","MEAN_ANOMALY":"176.0407","EPHEMERIS_TYPE":"0","CLASSIFICATION_TYPE":"U","NORAD_CAT_ID":"47281","ELEMENT_SET_NO":"999","REV_AT_EPOCH":"158","BSTAR":"-0.00039780000000","MEAN_MOTION_DOT":"-0.00016995","MEAN_MOTION_DDOT":"0.0000000000000","SEMIMAJOR_AXIS":"6817.605","PERIOD":"93.370","APOAPSIS":"446.146","PERIAPSIS":"432.795","OBJECT_TYPE":"PAYLOAD","RCS_SIZE":null,"COUNTRY_CODE":"UK","LAUNCH_DATE":"2020-12-18","SITE":"VOSTO","DECAY_DATE":null,"FILE":"2911634","GP_ID":"168527624","TLE_LINE0":"0 ONEWEB-0135","TLE_LINE1":"1 47281U 20100Z   20363.83335648 -.00016995  00000-0 -39780-3 0  9991","TLE_LINE2":"2 47281  87.3969  36.0052 0009791 212.3352 176.0407 15.42250495  1582"}]